BRO-16                  
1 62654U 25009AX  26068.70551181  .00006238  00000+0  26802-3 0  9998
2 62654  97.4092 150.4664 0000556 332.7889  27.3318 15.23029012 63657
SUPERVIEW NEO-1 03      
1 63125U 25040A   26068.76959279  .00000029  00000+0  42369-5 0  9993
2 63125  97.3380 185.5773 0001473 140.3569 219.7775 15.21682826 57065
