[{"OBJECT_NAME":"BRO-16","OBJECT_ID":"2025-009AX","EPOCH":"2026-03-09T16:55:56.220384","MEAN_MOTION":15.23029012,"ECCENTRICITY":5.557e-5,"INCLINATION":97.4092,"RA_OF_ASC_NODE":150.4664,"ARG_OF_PERICENTER":332.7889,"MEAN_ANOMALY":27.3318,"EPHEMERIS_TYPE":0,"CLASSIFICATION_TYPE":"U","NORAD_CAT_ID":62654,"ELEMENT_SET_NO":999,"REV_AT_EPOCH":6365,"BSTAR":0.00026802153,"MEAN_MOTION_DOT":6.238e-5,"MEAN_MOTION_DDOT":0},{"OBJECT_NAME":"SUPERVIEW NEO-1 03","OBJECT_ID":"2025-040A","EPOCH":"2026-03-09T18:28:12.817056","MEAN_MOTION":15.21682826,"ECCENTRICITY":0.00014726,"INCLINATION":97.338,"RA_OF_ASC_NODE":185.5773,"ARG_OF_PERICENTER":140.3569,"MEAN_ANOMALY":219.7775,"EPHEMERIS_TYPE":0,"CLASSIFICATION_TYPE":"U","NORAD_CAT_ID":63125,"ELEMENT_SET_NO":999,"REV_AT_EPOCH":5706,"BSTAR":4.236936e-6,"MEAN_MOTION_DOT":2.9e-7,"MEAN_MOTION_DDOT":0}]
